STARLINK-2512
1 28319C 21036AV  21325.14131649  .00001631  00000-0  10930-3 0  3259
2 28319  53.0527 307.5923 0001895  52.8080 242.7358 15.06388031    11
